ARIANE 5 R/B            
1 28499U 04049H   26024.43743616  .00001860  00000+0  21051-3 0  9993
2 28499  98.2556 191.2608 0085227 133.9590 226.8695 14.85156635139229
CZ-2D R/B               
1 28738U 05024B   26024.52557754  .00049674  00000+0  70523-3 0  9992
2 28738  97.3629  38.1838 0005612 157.2288 202.9216 15.56259593132901
ALOS (DAICHI)           
1 28931U 06002A   26024.45489417  .00002563  00000+0  43912-3 0  9994
2 28931  98.1152 340.6591 0002206  81.1234 279.0221 14.69647730 66987
H-2A R/B                
1 28932U 06002B   26024.38516612  .00013511  00000+0  69086-3 0  9990
2 28932  98.2346 167.6547 0053982  33.1529 327.3065 15.15507470 87729
RESURS-DK 1             
1 29228U 06021A   26024.29444509  .00004388  00000+0  25779-3 0  9998
2 29228  69.9348 351.8369 0005135 217.6933 142.3873 15.12448817 80810
CZ-4B R/B               
1 29507U 06046C   26024.47111436  .00008375  00000+0  42799-3 0  9996
2 29507  97.5676  69.4946 0034983  62.0721 298.4046 15.16387889 53342
CZ-2C R/B               
1 31114U 07010B   26024.27167918  .00000290  00000+0  15199-3 0  9991
2 31114  98.3971 139.7824 0059995  63.9485 296.7853 14.20229710973417
COSMO-SKYMED 1          
1 31598U 07023A   26024.52994470  .00006570  00000+0  58849-3 0  9996
2 31598  97.8845 215.2220 0001269  90.5676 269.5690 14.96150330  8304
COSMOS 2428             
1 31792U 07029A   26024.49989693  .00000472  00000+0  27918-3 0  9993
2 31792  70.9402 296.1057 0006277 327.2313  32.8418 14.12919496957855
SL-16 R/B               
1 31793U 07029B   26024.39762370 -.00000032  00000+0  80156-5 0  9992
2 31793  70.9738 265.4900 0001960 272.2096 260.6926 14.14822226959106
KORONAS-FOTON           
1 33504U 09003A   26024.26893514  .00016801  00000+0  39042-3 0  9995
2 33504  82.4333 322.0101 0009880 328.2862  31.7788 15.42158740938893
CZ-2C R/B               
1 37731U 11030B   26024.43928689  .00002173  00000+0  28014-3 0  9999
2 37731  97.8476 342.6185 0053756 133.1897 339.7395 14.81048988783548
H-2A R/B                
1 38341U 12025E   26024.41987503  .00005306  00000+0  48411-3 0  9994
2 38341  98.4656 347.9641 0046120  97.2648 263.3816 14.94761515741602
SHIJIAN-16 (SJ-16)      
1 39358U 13057A   26024.51485455  .00003422  00000+0  33760-3 0  9997
2 39358  74.9721 268.7092 0017604 221.0529 138.9335 14.92198996664919
SL-4 R/B                
1 39679U 14021B   26024.45718102  .00017320  00000+0  39711-3 0  9990
2 39679  51.6065 192.8254 0099125 301.5887  57.5449 15.37789608649465
ALOS-2                  
1 39766U 14029A   26024.55463752  .00000624  00000+0  90402-4 0  9998
2 39766  97.9196 123.7857 0001430 105.7693 254.3676 14.79462259630344
YAOGAN-29               
1 41038U 15069A   26024.53196225  .00000411  00000+0  57319-4 0  9998
2 41038  98.0187  52.8346 0002694 109.8321 250.3183 14.82939206549334
ASTRO-H (HITOMI)        
1 41337U 16012A   26024.40652453  .00004487  00000+0  26594-3 0  9992
2 41337  30.9998 282.2470 0009924 248.4788 111.4792 15.09668885545531
HXMT (HUIYAN)           
1 42758U 17034A   26024.53597855  .00008766  00000+0  44266-3 0  9993
2 42758  43.0138 262.0408 0033023 313.5945  46.2164 15.16868706475838
CZ-2C R/B               
1 43521U 18054D   26023.95114513  .00249075  00000+0  89981-3 0  9999
2 43521  35.1308 252.2902 0012488 228.0513 131.9160 15.86852624421738
SAOCOM 1A               
1 43641U 18076A   26024.47357414  .00000667  00000+0  90271-4 0  9990
2 43641  97.8857 213.2752 0001486  86.4362 273.7021 14.82163764394813
H-2A R/B                
1 43682U 18084L   26024.29925394  .00032008  00000+0  81205-3 0  9992
2 43682  98.8762 232.2661 0026025 175.8964 184.2495 15.39281414398946
SAOCOM 1B               
1 46265U 20059A   26023.49211909  .00001162  00000+0  15250-3 0  9992
2 46265  97.8852 211.4066 0001416  89.8155 270.3220 14.82165388292052
CSS (TIANHE)            
1 48274U 21035A   26024.47771054  .00029672  00000+0  34512-3 0  9998
2 48274  41.4667 116.8982 0010101 351.8564   8.2110 15.61003850270702
COSMOS 2550             
1 48865U 21056A   26023.39368896 -.00000193  00000+0 -42471-7 0  9999
2 48865  67.1417 177.9415 0008427 270.0851  89.9337 15.33842763256517
CZ-2C R/B               
1 52794U 22058K   26024.49156382  .00043064  00000+0  70113-3 0  9997
2 52794  50.1890 185.1104 0042615  14.3377 345.8791 15.51133042203260
CZ-2C R/B               
1 54039U 22132E   26024.42852923  .00046350  00000+0  61476-3 0  9994
2 54039  97.2956  26.5416 0016630 252.9401 107.0033 15.57958977183474
GSLV R/B                
1 54149U 22138AN  26024.45725013  .00004988  00000+0  43615-3 0  9990
2 54149  87.3846 181.1655 0020009 316.9978  42.9689 14.96415850177312
XRISM                   
1 57800U 23137A   26024.18910842  .00008482  00000+0  49082-3 0  9990
2 57800  31.0009 211.3641 0008008 312.7237  47.2727 15.10898034131052
ACS3                    
1 59588U 24077B   26024.40101661  .00026453  00000+0  22068-1 0  9996
2 59588  97.2335 335.4644 0050582 223.5720 136.1442 13.87677535 88050
SZ-21 MODULE            
1 66515U 25246C   26024.52022918  .00042938  00000+0  42228-3 0  9991
2 66515  41.4751 114.5700 0003207 232.0360 128.0191 15.65205841 11149
